NORAD_CAT_ID,OBJECT_NAME,OBJECT_TYPE,EPOCH,MEAN_MOTION,ECCENTRICITY,INCLINATION,RA_OF_ASC_NODE,ARG_OF_PERICENTER,MEAN_ANOMALY,BSTAR,MEAN_MOTION_DOT,MEAN_MOTION_DDOT,TLE_LINE0,TLE_LINE1,TLE_LINE2,SEMIMAJOR_AXIS,PERIOD,APOGEE,PERIGEE,DECAYED
54783.0,STARLINK-5439,PAYLOAD,2024-01-13 05:56:00,15.08851318,0.0001412,53.2174,319.584,94.4929,265.6225,0.0002713,4.034e-05,0.0,0 STARLINK-5439,1 54783U 22175AB  24013.24723262  .00004034  00000-0  27130-3 0  9999,2 54783  53.2174 319.5840 0001412  94.4929 265.6225 15.08851318 61405,6917.846,95.437,540.688,538.734,0.0
54783.0,STARLINK-5439,PAYLOAD,2024-01-14 02:36:02,15.08842698,0.0001399,53.2171,315.7194,91.1465,268.9687,0.00014093,1.956e-05,0.0,0 STARLINK-5439,1 54783U 22175AB  24014.10836038  .00001956  00000-0  14093-3 0  9995,2 54783  53.2171 315.7194 0001399  91.1465 268.9687 15.08842698 59377,6917.872,95.437,540.705,538.769,0.0
54783.0,STARLINK-5439,PAYLOAD,2024-01-14 05:46:48,15.08845165,0.0001461,53.2174,315.1222,107.1597,252.9555,0.00024711,3.648e-05,0.0,0 STARLINK-5439,1 54783U 22175AB  24014.24083909  .00003648  00000-0  24711-3 0  9999,2 54783  53.2174 315.1222 0001461 107.1597 252.9555 15.08845165 61552,6917.865,95.437,540.74,538.719,0.0
54783.0,STARLINK-5439,PAYLOAD,2024-01-14 20:05:16,15.08846914,0.0001578,53.2182,312.4436,104.8826,255.2341,0.00022523,3.299e-05,0.0,0 STARLINK-5439,1 54783U 22175AB  24014.83699896  .00003299  00000-0  22523-3 0  9993,2 54783  53.2182 312.4436 0001578 104.8826 255.2341 15.08846914 61648,6917.859,95.437,540.816,538.633,0.0
54783.0,STARLINK-5439,PAYLOAD,2024-01-15 02:26:48,15.08861468,0.0001546,53.2173,311.2583,96.724,263.3928,0.00059831,9.252e-05,0.0,0 STARLINK-5439,1 54783U 22175AB  24015.10195317  .00009252  00000-0  59831-3 0  9990,2 54783  53.2173 311.2583 0001546  96.7240 263.3928 15.08861468 59528,6917.815,95.436,540.749,538.61,0.0
54783.0,STARLINK-5439,PAYLOAD,2024-01-16 03:52:59,15.08840075,0.0001458,53.2174,306.4994,88.7562,271.3597,6.6322e-05,7.68e-06,0.0,0 STARLINK-5439,1 54783U 22175AB  24016.16180137  .00000768  00000-0  66322-4 0  9998,2 54783  53.2174 306.4994 0001458  88.7562 271.3597 15.08840075 59680,6917.88,95.438,540.754,538.737,0.0
54783.0,STARLINK-5439,PAYLOAD,2024-01-16 05:28:22,15.08840639,0.0001447,53.2175,306.2031,87.4668,272.649,4.6803e-05,4.57e-06,0.0,0 STARLINK-5439,1 54783U 22175AB  24016.22804157  .00000457  00000-0  46803-4 0  9997,2 54783  53.2175 306.2031 0001447  87.4668 272.6490 15.08840639 61856,6917.878,95.438,540.744,538.742,0.0
54783.0,STARLINK-5439,PAYLOAD,2024-01-17 02:08:23,15.08849573,0.0001469,53.2179,302.3379,95.3402,264.7757,0.00020965,3.051e-05,0.0,0 STARLINK-5439,1 54783U 22175AB  24017.08915656  .00003051  00000-0  20965-3 0  9992,2 54783  53.2179 302.3379 0001469  95.3402 264.7757 15.08849573 59828,6917.851,95.437,540.732,538.7,0.0
54783.0,STARLINK-5439,PAYLOAD,2024-01-17 19:37:37,15.08841426,0.0002136,53.217,299.0658,142.4637,217.6505,3.2753e-05,2.33e-06,0.0,0 STARLINK-5439,1 54783U 22175AB  24017.81779561  .00000233  00000-0  32753-4 0  9994,2 54783  53.2170 299.0658 0002136 142.4637 217.6505 15.08841426 59936,6917.876,95.437,541.219,538.263,0.0
54783.0,STARLINK-5439,PAYLOAD,2024-01-18 03:34:33,15.08841278,0.0001512,53.2175,297.5805,81.1504,278.9659,9.8726e-05,1.284e-05,0.0,0 STARLINK-5439,1 54783U 22175AB  24018.14900243  .00001284  00000-0  98726-4 0  9993,2 54783  53.2175 297.5805 0001512  81.1504 278.9659 15.08841278 59987,6917.876,95.437,540.787,538.695,0.0
54783.0,STARLINK-5439,PAYLOAD,2024-01-18 22:39:11,15.08844269,0.0001197,53.2164,294.013,99.2608,260.8519,-6.2308e-05,-1.279e-05,0.0,0 STARLINK-5439,1 54783U 22175AB  24018.94387968 -.00001279  00000-0 -62308-4 0  9997,2 54783  53.2164 294.0130 0001197  99.2608 260.8519 15.08844269 62265,6917.867,95.437,540.56,538.904,0.0
54783.0,STARLINK-5439,PAYLOAD,2024-01-19 01:49:57,15.08852867,0.000134,53.2166,293.4176,88.0459,272.0686,0.00010088,1.318e-05,0.0,0 STARLINK-5439,1 54783U 22175AB  24019.07635616  .00001318  00000-0  10088-3 0  9997,2 54783  53.2166 293.4176 0001340  88.0459 272.0686 15.08852867 60126,6917.841,95.437,540.633,538.779,0.0
54783.0,STARLINK-5439,PAYLOAD,2024-01-19 22:29:58,15.08842193,0.0001402,53.217,289.5509,83.5235,276.5917,0.00015307,2.149e-05,0.0,0 STARLINK-5439,1 54783U 22175AB  24019.93748386  .00002149  00000-0  15307-3 0  9993,2 54783  53.2170 289.5509 0001402  83.5235 276.5917 15.08842193 62419,6917.874,95.437,540.709,538.769,0.0
54783.0,STARLINK-5439,PAYLOAD,2024-01-20 03:16:07,15.08850195,0.0001598,53.2176,288.6567,80.8504,279.2669,0.00025866,3.832e-05,0.0,0 STARLINK-5439,1 54783U 22175AB  24020.13620030  .00003832  00000-0  25866-3 0  9993,2 54783  53.2176 288.6567 0001598  80.8504 279.2669 15.08850195 60282,6917.849,95.437,540.82,538.609,0.0
54783.0,STARLINK-5439,PAYLOAD,2024-01-20 17:34:36,15.08837684,0.0002264,53.2188,285.973,139.2334,220.8828,-7.4632e-05,-1.476e-05,0.0,0 STARLINK-5439,1 54783U 22175AB  24020.73236337 -.00001476  00000-0 -74632-4 0  9992,2 54783  53.2188 285.9730 0002264 139.2334 220.8828 15.08837684 60375,6917.887,95.438,541.319,538.186,0.0
54783.0,STARLINK-5439,PAYLOAD,2024-01-20 22:20:45,15.0884451,0.0001813,53.2177,285.09,117.0172,243.1005,3.8801e-05,3.3e-06,0.0,0 STARLINK-5439,1 54783U 22175AB  24020.93107956  .00000330  00000-0  38801-4 0  9992,2 54783  53.2177 285.0900 0001813 117.0172 243.1005 15.08844510 62560,6917.867,95.437,540.986,538.477,0.0
54783.0,STARLINK-5439,PAYLOAD,2024-01-20 23:56:08,15.08843885,0.0001596,53.2159,284.7956,84.6715,275.446,3.3424e-05,2.44e-06,0.0,0 STARLINK-5439,1 54783U 22175AB  24020.99732352  .00000244  00000-0  33424-4 0  9992,2 54783  53.2159 284.7956 0001596  84.6715 275.4460 15.08843885 62575,6917.869,95.437,540.838,538.629,0.0
54783.0,STARLINK-5439,PAYLOAD,2024-01-21 22:11:32,15.08841804,0.0001671,53.2163,280.6323,86.7398,273.3786,6.0722e-05,6.79e-06,0.0,0 STARLINK-5439,1 54783U 22175AB  24021.92468687  .00000679  00000-0  60722-4 0  9996,2 54783  53.2163 280.6323 0001671  86.7398 273.3786 15.08841804 62710,6917.875,95.437,540.896,538.584,0.0
54783.0,STARLINK-5439,PAYLOAD,2024-01-22 02:57:42,15.08844368,0.0001533,53.2158,279.7386,96.3535,263.7632,0.00018059,2.588e-05,0.0,0 STARLINK-5439,1 54783U 22175AB  24022.12340499  .00002588  00000-0  18059-3 0  9995,2 54783  53.2158 279.7386 0001533  96.3535 263.7632 15.08844368 60583,6917.867,95.437,540.793,538.672,0.0
54783.0,STARLINK-5439,PAYLOAD,2024-01-22 22:02:18,15.08837721,0.0001511,53.2163,276.1703,104.1656,255.9505,-9.0556e-05,-1.729e-05,0.0,0 STARLINK-5439,1 54783U 22175AB  24022.91827408 -.00001729  00000-0 -90556-4 0  9993,2 54783  53.2163 276.1703 0001511 104.1656 255.9505 15.08837721 62861,6917.887,95.438,540.798,538.707,0.0
54783.0,STARLINK-5439,PAYLOAD,2024-01-23 21:53:06,15.08832384,0.0001538,53.2162,271.7086,96.5036,263.6132,-0.0001597,-2.828e-05,0.0,0 STARLINK-5439,1 54783U 22175AB  24023.91187910 -.00002828  00000-0 -15970-3 0  9998,2 54783  53.2162 271.7086 0001538  96.5036 263.6132 15.08832384 63010,6917.904,95.438,540.833,538.705,0.0
54783.0,STARLINK-5439,PAYLOAD,2024-01-24 20:08:31,15.08824893,0.0001528,53.2159,267.5461,99.5468,260.5697,0.00025695,3.802e-05,0.0,0 STARLINK-5439,1 54783U 22175AB  24024.83924901  .00003802  00000-0  25695-3 0  9995,2 54783  53.2159 267.5461 0001528  99.5468 260.5697 15.08824893 60999,6917.927,95.439,540.849,538.735,0.0
54783.0,STARLINK-5439,PAYLOAD,2024-01-24 21:43:54,15.08825164,0.0001564,53.2161,267.2499,102.5045,257.6122,0.00025284,3.737e-05,0.0,0 STARLINK-5439,1 54783U 22175AB  24024.90548950  .00003737  00000-0  25284-3 0  9990,2 54783  53.2161 267.2499 0001564 102.5045 257.6122 15.08825164 63160,6917.926,95.438,540.873,538.709,0.0
54783.0,STARLINK-5439,PAYLOAD,2024-01-24 23:19:17,15.08826717,0.0001537,53.2159,266.9533,100.4917,259.6249,0.00025084,3.705e-05,0.0,0 STARLINK-5439,1 54783U 22175AB  24024.97172981  .00003705  00000-0  25084-3 0  9997,2 54783  53.2159 266.9533 0001537 100.4917 259.6249 15.08826717 63175,6917.921,95.438,540.849,538.723,0.0
54783.0,STARLINK-5439,PAYLOAD,2024-01-25 21:34:41,15.08833272,0.0001562,53.216,262.7932,105.8688,254.2477,0.00019812,2.866e-05,0.0,0 STARLINK-5439,1 54783U 22175AB  24025.89909523  .00002866  00000-0  19812-3 0  9998,2 54783  53.2160 262.7932 0001562 105.8688 254.2477 15.08833272 63310,6917.901,95.438,540.847,538.685,0.0
54783.0,STARLINK-5439,PAYLOAD,2024-01-25 23:10:04,15.08835551,0.0001465,53.2157,262.4921,86.2239,273.892,0.0002266,3.32e-05,0.0,0 STARLINK-5439,1 54783U 22175AB  24025.96533511  .00003320  00000-0  22660-3 0  9997,2 54783  53.2157 262.4921 0001465  86.2239 273.8920 15.08835551 61160,6917.894,95.438,540.772,538.746,0.0
54783.0,STARLINK-5439,PAYLOAD,2024-01-26 23:00:51,15.08849659,0.0001448,53.2153,258.0315,82.7782,277.3375,0.00036764,5.569e-05,0.0,0 STARLINK-5439,1 54783U 22175AB  24026.95893116  .00005569  00000-0  36764-3 0  9994,2 54783  53.2153 258.0315 0001448  82.7782 277.3375 15.08849659 61313,6917.851,95.437,540.718,538.714,0.0
54783.0,STARLINK-5439,PAYLOAD,2024-01-27 19:40:52,15.08846054,0.0001724,53.2154,254.1634,66.2769,293.8404,0.00026836,3.986e-05,0.0,0 STARLINK-5439,1 54783U 22175AB  24027.82005152  .00003986  00000-0  26836-3 0  9996,2 54783  53.2154 254.1634 0001724  66.2769 293.8404 15.08846054 61440,6917.862,95.437,540.92,538.534,0.0
54783.0,STARLINK-5439,PAYLOAD,2024-01-27 21:16:15,15.08846971,0.0001358,53.2148,253.8671,87.902,272.2128,0.0001528,2.145e-05,0.0,0 STARLINK-5439,1 54783U 22175AB  24027.88628932  .00002145  00000-0  15280-3 0  9996,2 54783  53.2148 253.8671 0001358  87.9020 272.2128 15.08846971 63616,6917.859,95.437,540.664,538.785,0.0
54783.0,STARLINK-5439,PAYLOAD,2024-01-28 00:27:01,15.08847919,0.0001353,53.2148,253.2714,90.0457,270.069,0.00016258,2.301e-05,0.0,0 STARLINK-5439,1 54783U 22175AB  24028.01876828  .00002301  00000-0  16258-3 0  9991,2 54783  53.2148 253.2714 0001353  90.0457 270.0690 15.08847919 63637,6917.856,95.437,540.657,538.785,0.0
